[{"OBJECT_NAME":"ONEWEB-0584","OBJECT_ID":"2022-166K","EPOCH":"2026-03-09T22:11:18.831264","MEAN_MOTION":13.21825743,"ECCENTRICITY":0.00013411,"INCLINATION":87.9161,"RA_OF_ASC_NODE":263.7793,"ARG_OF_PERICENTER":85.6717,"MEAN_ANOMALY":274.4571,"EPHEMERIS_TYPE":0,"CLASSIFICATION_TYPE":"U","NORAD_CAT_ID":54651,"ELEMENT_SET_NO":999,"REV_AT_EPOCH":15840,"BSTAR":-0.00021990395,"MEAN_MOTION_DOT":-7.8e-7,"MEAN_MOTION_DDOT":0},{"OBJECT_NAME":"FENGYUN 1C DEB","OBJECT_ID":"1999-025ZS","EPOCH":"2026-03-09T18:43:58.566144","MEAN_MOTION":13.60285247,"ECCENTRICITY":0.02638381,"INCLINATION":98.5957,"RA_OF_ASC_NODE":3.2973,"ARG_OF_PERICENTER":233.2093,"MEAN_ANOMALY":184.7982,"EPHEMERIS_TYPE":0,"CLASSIFICATION_TYPE":"U","NORAD_CAT_ID":30305,"ELEMENT_SET_NO":999,"REV_AT_EPOCH":94957,"BSTAR":0.00019961158,"MEAN_MOTION_DOT":1.5e-6,"MEAN_MOTION_DDOT":0}]
